[{"OBJECT_NAME":"STARLINK-1159","OBJECT_ID":"2020-006P","EPOCH":"2026-03-10T00:00:02.999808","MEAN_MOTION":15.81930134,"ECCENTRICITY":0.0001934,"INCLINATION":53.0438,"RA_OF_ASC_NODE":233.2103,"ARG_OF_PERICENTER":143.6489,"MEAN_ANOMALY":161.0887,"EPHEMERIS_TYPE":0,"CLASSIFICATION_TYPE":"U","NORAD_CAT_ID":45057,"ELEMENT_SET_NO":999,"REV_AT_EPOCH":599,"BSTAR":0.00093798588,"MEAN_MOTION_DOT":0.00198257,"MEAN_MOTION_DDOT":0},{"OBJECT_NAME":"STARLINK-36820","OBJECT_ID":"2026-038F","EPOCH":"2026-03-09T22:00:01.999584","MEAN_MOTION":15.87477375,"ECCENTRICITY":0.0001311,"INCLINATION":97.2729,"RA_OF_ASC_NODE":79.2132,"ARG_OF_PERICENTER":86.2094,"MEAN_ANOMALY":184.0872,"EPHEMERIS_TYPE":0,"CLASSIFICATION_TYPE":"U","NORAD_CAT_ID":67966,"ELEMENT_SET_NO":999,"REV_AT_EPOCH":323,"BSTAR":-0.0066407956,"MEAN_MOTION_DOT":-0.01507882,"MEAN_MOTION_DDOT":0}]
